ORBCOMM FM01            
1 23545U 95017A   24143.87041159  .00008224  00000+0  10876-2 0  9999
2 23545  69.9673 320.0981 0007554 214.3787 145.6874 14.80250764554902
ORBCOMM FM08            
1 25112U 97084A   24143.86198111  .00003811  00000+0  11773-2 0  9991
2 25112  45.0142  77.1174 0007054  68.6201 291.5401 14.42660823384941
ORBCOMM FM10            
1 25113U 97084B   24143.17713262  .00003076  00000+0  96071-3 0  9994
2 25113  45.0155  82.2521 0005430  31.3575 328.7598 14.42555995559998
ORBCOMM FM11            
1 25114U 97084C   24143.19682740  .00003274  00000+0  10224-2 0  9998
2 25114  45.0139  82.2366 0006207  33.3266 326.7974 14.42429941384993
ORBCOMM FM09            
1 25116U 97084E   24143.86118237  .00003285  00000+0  10270-2 0  9992
2 25116  45.0152  79.4555 0006472  23.7695 336.3453 14.42367213385062
